OBJECT_NAME,OBJECT_ID,EPOCH,MEAN_MOTION,ECCENTRICITY,INCLINATION,RA_OF_ASC_NODE,ARG_OF_PERICENTER,MEAN_ANOMALY,EPHEMERIS_TYPE,CLASSIFICATION_TYPE,NORAD_CAT_ID,ELEMENT_SET_NO,REV_AT_EPOCH,BSTAR,MEAN_MOTION_DOT,MEAN_MOTION_DDOT
CUTE-1 (CO-55),2003-031E,2026-07-06T23:42:02.806272,14.24347889,.001061,98.6738,196.2974,123.9275,236.2914,0,U,27844,999,19449,.12235E-3,.239E-5,0
CUBESAT XI-IV (CO-57),2003-031J,2026-07-06T23:39:44.931744,14.23631325,.0010187,98.6770,195.9925,141.0143,219.1771,0,U,27848,999,19419,.1062E-3,.199E-5,0
CUBESAT XI-V,2005-043F,2026-07-06T21:40:08.857056,14.72686848,.0014934,98.3006,343.9413,139.5987,220.6332,0,U,28895,999,10465,.21205E-3,.1301E-4,0
CUTE-1.7+APD II (CO-65),2008-021C,2026-07-07T03:14:01.561056,15.09652011,.0007586,97.8289,169.9714,332.5664,27.5163,0,U,32785,999,98820,.22322E-3,.3527E-4,0
CANX-2,2008-021H,2026-07-06T21:25:40.708128,15.05766170,.0009662,97.8648,168.0555,346.4570,13.6395,0,U,32790,999,98777,.25885E-3,.3687E-4,0
SEEDS II (CO-66),2008-021J,2026-07-06T23:27:44.284032,15.33467667,.0002095,97.7526,186.8299,175.3299,184.7963,0,U,32791,999,99032,.41928E-3,.13488E-3,0
SWISSCUBE,2009-051B,2026-07-06T17:39:33.818112,14.62519591,.0007377,98.4019,95.9636,142.1539,218.0181,0,U,35932,999,89201,.18748E-3,.901E-5,0
BEESAT-1,2009-051C,2026-07-06T16:29:16.621152,14.61752775,.0005594,98.3946,95.5083,152.8546,207.2947,0,U,35933,999,89203,.17521E-3,.825E-5,0
ITUPSAT1,2009-051E,2026-07-06T23:15:23.766048,14.60470414,.0007491,98.4029,94.9654,167.2439,192.8951,0,U,35935,999,89162,.14806E-3,.669E-5,0
TISAT 1,2010-035E,2026-07-06T09:13:31.109376,15.32488033,.00040163,98.0714,135.6467,127.7784,232.3820,0,U,36799,999,87064,.62688898E-3,.19611E-3,0
AEROCUBE 4.5A,2012-048K,2026-06-29T19:35:03.540480,16.17962819,.00188678,64.6148,340.0554,267.4936,92.4076,0,U,38767,999,37468,.11805476E-2,.2026816E-1,.7424434E-5
STRAND-1,2013-009E,2026-07-06T23:13:34.991040,14.37175365,.0008934,98.3931,7.7160,164.1358,196.0110,0,U,39090,999,69990,.96432E-4,.244E-5,0
BRITE-AUSTRIA,2013-009F,2026-07-06T10:22:04.977984,14.36550054,.00102207,98.4004,6.3921,175.9573,184.1698,0,U,39091,999,69981,.77695905E-4,.186E-5,0
NEE-01 PEGASO,2013-018B,2026-07-06T21:26:17.199168,14.93765912,.0013985,98.1252,332.6981,99.0383,261.2419,0,U,39151,999,71364,.25827E-3,.268E-4,0
POPACS 2,2013-055E,2026-07-04T19:43:26.982048,14.91720341,.0415832,80.9915,124.0034,137.1605,226.2823,0,U,39269,999,66584,.44970881E-3,.27129E-3,-.752503E-6
POPACS 3,2013-055F,2026-07-07T01:02:40.841664,14.56515300,.0549801,80.9994,207.6517,9.5415,351.5717,0,U,39270,999,64144,.21283E-3,.8998E-4,0
ZACUBE-1 (TSHEPISOSAT),2013-066B,2026-07-06T22:28:50.282976,15.01303291,.0043453,97.8024,150.3724,181.7019,178.4064,0,U,39417,999,68369,.17263E-3,.2201E-4,0
WNISAT-1,2013-066H,2026-07-06T21:45:35.153568,14.58106417,.0163304,97.7226,335.6656,169.3114,191.1628,0,U,39423,999,66960,.22013E-3,.117E-4,0
TRITON-1,2013-066M,2026-07-07T05:12:32.680224,14.81777473,.0089929,97.8222,97.5668,168.0407,192.2971,0,U,39427,999,67705,.21186E-3,.1736E-4,0
GOMX-1,2013-066Q,2026-07-07T04:54:55.677312,14.69530606,.0129018,97.6473,27.4036,13.8510,346.6182,0,U,39430,999,67285,.28242E-3,.1852E-4,0
CUBEBUG-2 (LO-74),2013-066AA,2026-07-06T10:06:24.412032,14.93929798,.0056283,97.8914,136.4829,325.3135,34.4418,0,U,39440,999,67986,.35018E-3,.3781E-4,0
NEE-02 KRYSAOR,2013-066AB,2026-07-06T06:09:39.477888,14.86713200,.00662493,97.8890,126.3363,8.6556,351.5786,0,U,39441,999,67903,.31544349E-3,.286E-4,0
FUNCUBE-1 (AO-73),2013-066AE,2026-07-06T21:00:48.915360,15.09744377,.0037536,97.8282,159.7358,134.9216,225.5068,0,U,39444,999,68263,.37306E-3,.6051E-4,0
UWE-3,2013-066AG,2026-07-06T20:46:43.116384,14.97165972,.0047462,97.8701,144.0754,253.6272,105.9728,0,U,39446,999,68052,.20239E-3,.2328E-4,0
BRITE-CA1 (TORONTO),2014-033L,2026-07-06T21:03:33.808032,14.72711122,.0077849,97.9763,316.4452,213.0292,146.6041,0,U,40020,999,64511,.14459E-3,.913E-5,0
DUCHIFAT-1,2014-033M,2026-07-06T16:39:29.772576,15.69242725,.0001149,98.0433,249.6610,272.1887,87.9241,0,U,40021,999,65880,.10018E-2,.117855E-2,0
NANOSATC-BR1,2014-033Q,2026-07-06T16:08:19.591008,15.32129719,.0005298,98.0714,221.7949,117.4350,242.7429,0,U,40024,999,65696,.45085E-3,.13914E-3,0
QB50P1,2014-033R,2026-07-06T23:39:44.400384,15.18579991,.0009775,98.0969,200.5237,149.2946,210.8860,0,U,40025,999,65603,.3291E-3,.6736E-4,0
QB50P2,2014-033Y,2026-07-06T21:51:30.730176,15.15433513,.0009359,98.0762,186.0224,106.7260,253.4998,0,U,40032,999,65565,.26834E-3,.5002E-4,0
PERSEUS-M2,2014-033AD,2026-07-07T03:14:36.521088,14.95571436,.0010658,97.9967,139.0831,229.4066,130.6228,0,U,40037,999,65376,.19529E-3,.2107E-4,0
